{"type":"FeatureCollection","features":[{"type":"Feature","properties":{"kind":"umbra","event":"2027-08-02"},"geometry":{"type":"Polygon","coordinates":[[[-12.0,36.36],[-11.5,36.4],[-11.0,36.44],[-10.5,36.48],[-10.0,36.52],[-9.5,36.56],[-9.0,36.6],[-8.5,36.64],[-8.0,36.66],[-7.5,36.7],[-7.0,36.72],[-6.5,36.74],[-6.0,36.76],[-5.5,36.78],[-5.0,36.8],[-4.5,36.8],[-4.0,36.82],[-3.5,36.82],[-3.0,36.82],[-2.5,36.82],[-2.0,36.82],[-1.5,36.82],[-1.0,36.82],[-0.5,36.8],[0.0,36.8],[0.5,36.78],[1.0,36.76],[1.5,36.74],[2.0,36.7],[2.5,36.68],[3.0,36.64],[3.5,36.62],[4.0,36.58],[4.5,36.54],[5.0,36.48],[5.5,36.44],[6.0,36.38],[6.5,36.34],[7.0,36.28],[7.5,36.2],[8.0,36.14],[8.5,36.08],[9.0,36.0],[9.5,35.92],[10.0,35.84],[10.5,35.76],[11.0,35.68],[11.5,35.58],[12.0,35.48],[12.5,35.38],[13.0,35.28],[13.5,35.18],[14.0,35.06],[14.5,34.94],[15.0,34.82],[15.5,34.7],[16.0,34.58],[16.5,34.44],[17.0,34.3],[17.5,34.16],[18.0,34.0],[18.5,33.86],[19.0,33.7],[19.5,33.54],[20.0,33.38],[20.5,33.2],[21.0,33.02],[21.5,32.84],[22.0,32.66],[22.5,32.46],[23.0,32.26],[23.5,32.06],[24.0,31.86],[24.5,31.64],[25.0,31.42],[25.5,31.2],[26.0,30.96],[26.5,30.72],[27.0,30.48],[27.5,30.22],[28.0,29.98],[28.5,29.72],[29.0,29.44],[29.5,29.18],[30.0,28.9],[30.5,28.6],[31.0,28.32],[31.5,28.02],[32.0,27.7],[32.5,27.4],[33.0,27.08],[33.5,26.76],[34.0,26.42],[34.5,26.08],[35.0,25.74],[35.5,25.4],[36.0,25.04],[36.5,24.68],[37.0,24.3],[37.5,23.94],[38.0,23.56],[38.5,23.16],[39.0,22.78],[39.5,22.38],[40.0,21.98],[40.5,21.56],[41.0,21.16],[41.5,20.74],[42.0,20.32],[42.5,19.9],[43.0,19.46],[43.5,19.04],[44.0,18.6],[44.5,18.16],[45.0,17.72],[45.5,17.28],[46.0,16.84],[46.5,16.38],[47.0,15.94],[47.5,15.48],[48.0,15.04],[48.5,14.58],[49.0,14.14],[49.5,13.68],[50.0,13.24],[50.5,12.8],[51.0,12.34],[51.5,11.9],[52.0,11.46],[52.0,8.36],[51.5,8.8],[51.0,9.24],[50.5,9.68],[50.0,10.12],[49.5,10.56],[49.0,11.0],[48.5,11.44],[48.0,11.88],[47.5,12.32],[47.0,12.78],[46.5,13.22],[46.0,13.66],[45.5,14.1],[45.0,14.56],[44.5,15.0],[44.0,15.44],[43.5,15.88],[43.0,16.32],[42.5,16.74],[42.0,17.18],[41.5,17.6],[41.0,18.04],[40.5,18.46],[40.0,18.88],[39.5,19.28],[39.0,19.7],[38.5,20.1],[38.0,20.5],[37.5,20.9],[37.0,21.28],[36.5,21.68],[36.0,22.06],[35.5,22.42],[35.0,22.8],[34.5,23.16],[34.0,23.5],[33.5,23.86],[33.0,24.2],[32.5,24.54],[32.0,24.86],[31.5,25.18],[31.0,25.5],[30.5,25.82],[30.0,26.12],[29.5,26.42],[29.0,26.72],[28.5,27.0],[28.0,27.28],[27.5,27.54],[27.0,27.82],[26.5,28.08],[26.0,28.32],[25.5,28.58],[25.0,28.82],[24.5,29.04],[24.0,29.28],[23.5,29.5],[23.0,29.72],[22.5,29.94],[22.0,30.14],[21.5,30.34],[21.0,30.54],[20.5,30.72],[20.0,30.9],[19.5,31.08],[19.0,31.26],[18.5,31.42],[18.0,31.6],[17.5,31.76],[17.0,31.9],[16.5,32.06],[16.0,32.2],[15.5,32.34],[15.0,32.48],[14.5,32.6],[14.0,32.72],[13.5,32.84],[13.0,32.96],[12.5,33.08],[12.0,33.18],[11.5,33.28],[11.0,33.38],[10.5,33.48],[10.0,33.58],[9.5,33.66],[9.0,33.74],[8.5,33.82],[8.0,33.9],[7.5,33.96],[7.0,34.04],[6.5,34.1],[6.0,34.16],[5.5,34.22],[5.0,34.28],[4.5,34.32],[4.0,34.36],[3.5,34.42],[3.0,34.46],[2.5,34.48],[2.0,34.52],[1.5,34.56],[1.0,34.58],[0.5,34.6],[0.0,34.62],[-0.5,34.64],[-1.0,34.66],[-1.5,34.66],[-2.0,34.68],[-2.5,34.68],[-3.0,34.68],[-3.5,34.68],[-4.0,34.68],[-4.5,34.66],[-5.0,34.66],[-5.5,34.64],[-6.0,34.64],[-6.5,34.62],[-7.0,34.6],[-7.5,34.56],[-8.0,34.54],[-8.5,34.52],[-9.0,34.48],[-9.5,34.44],[-10.0,34.42],[-10.5,34.38],[-11.0,34.34],[-11.5,34.28],[-12.0,34.24],[-12.0,36.36]]]}},{"type":"Feature","properties":{"kind":"centerline","event":"2027-08-02"},"geometry":{"type":"LineString","coordinates":[[-12.0,35.2853],[-11.5,35.3325],[-11.0,35.3772],[-10.5,35.4195],[-10.0,35.4592],[-9.5,35.4965],[-9.0,35.5312],[-8.5,35.5634],[-8.0,35.593],[-7.5,35.62],[-7.0,35.6444],[-6.5,35.6661],[-6.0,35.6851],[-5.5,35.7015],[-5.0,35.7151],[-4.5,35.7259],[-4.0,35.734],[-3.5,35.7392],[-3.0,35.7416],[-2.5,35.7412],[-2.0,35.7378],[-1.5,35.7315],[-1.0,35.7223],[-0.5,35.71],[0.0,35.6948],[0.5,35.6765],[1.0,35.655],[1.5,35.6305],[2.0,35.6028],[2.5,35.572],[3.0,35.5379],[3.5,35.5005],[4.0,35.4598],[4.5,35.4158],[5.0,35.3684],[5.5,35.3175],[6.0,35.2632],[6.5,35.2054],[7.0,35.1441],[7.5,35.0791],[8.0,35.0105],[8.5,34.9382],[9.0,34.8622],[9.5,34.7823],[10.0,34.6987],[10.5,34.6111],[11.0,34.5196],[11.5,34.4241],[12.0,34.3246],[12.5,34.2209],[13.0,34.1131],[13.5,34.001],[14.0,33.8847],[14.5,33.7641],[15.0,33.639],[15.5,33.5094],[16.0,33.3754],[16.5,33.2367],[17.0,33.0933],[17.5,32.9453],[18.0,32.7924],[18.5,32.6347],[19.0,32.472],[19.5,32.3043],[20.0,32.1315],[20.5,31.9536],[21.0,31.7704],[21.5,31.582],[22.0,31.3881],[22.5,31.1888],[23.0,30.9841],[23.5,30.7737],[24.0,30.5576],[24.5,30.3358],[25.0,30.1082],[25.5,29.8748],[26.0,29.6354],[26.5,29.39],[27.0,29.1386],[27.5,28.881],[28.0,28.6172],[28.5,28.3473],[29.0,28.071],[29.5,27.7885],[30.0,27.4996],[30.5,27.2043],[31.0,26.9027],[31.5,26.5946],[32.0,26.2801],[32.5,25.9592],[33.0,25.632],[33.5,25.2983],[34.0,24.9583],[34.5,24.612],[35.0,24.2595],[35.5,23.9008],[36.0,23.5361],[36.5,23.1653],[37.0,22.7888],[37.5,22.4064],[38.0,22.0186],[38.5,21.6253],[39.0,21.2267],[39.5,20.8232],[40.0,20.4147],[40.5,20.0017],[41.0,19.5843],[41.5,19.1628],[42.0,18.7374],[42.5,18.3085],[43.0,17.8762],[43.5,17.441],[44.0,17.0031],[44.5,16.5628],[45.0,16.1204],[45.5,15.6764],[46.0,15.2309],[46.5,14.7843],[47.0,14.337],[47.5,13.8893],[48.0,13.4414],[48.5,12.9938],[49.0,12.5466],[49.5,12.1003],[50.0,11.655],[50.5,11.2111],[51.0,10.7689],[51.5,10.3285],[52.0,9.8903]]}}]}